[{"OBJECT_NAME":"STARLINK-30708","OBJECT_ID":"2023-148K","EPOCH":"2026-03-09T04:09:35.369856","MEAN_MOTION":15.30191809,"ECCENTRICITY":0.00012271,"INCLINATION":53.1613,"RA_OF_ASC_NODE":26.656,"ARG_OF_PERICENTER":82.5112,"MEAN_ANOMALY":277.6028,"EPHEMERIS_TYPE":0,"CLASSIFICATION_TYPE":"U","NORAD_CAT_ID":57944,"ELEMENT_SET_NO":999,"REV_AT_EPOCH":13834,"BSTAR":-4.6253536e-5,"MEAN_MOTION_DOT":-1.728e-5,"MEAN_MOTION_DDOT":0},{"OBJECT_NAME":"SCS-01 B","OBJECT_ID":"2025-100B","EPOCH":"2026-03-09T21:49:11.508672","MEAN_MOTION":15.3317485,"ECCENTRICITY":0.00088698,"INCLINATION":97.3706,"RA_OF_ASC_NODE":145.9041,"ARG_OF_PERICENTER":288.6157,"MEAN_ANOMALY":71.4122,"EPHEMERIS_TYPE":0,"CLASSIFICATION_TYPE":"U","NORAD_CAT_ID":63983,"ELEMENT_SET_NO":999,"REV_AT_EPOCH":4567,"BSTAR":0.00098809397,"MEAN_MOTION_DOT":0.00031724,"MEAN_MOTION_DDOT":0}]
